OBJECT_NAME,OBJECT_ID,EPOCH,MEAN_MOTION,ECCENTRICITY,INCLINATION,RA_OF_ASC_NODE,ARG_OF_PERICENTER,MEAN_ANOMALY,EPHEMERIS_TYPE,CLASSIFICATION_TYPE,NORAD_CAT_ID,ELEMENT_SET_NO,REV_AT_EPOCH,BSTAR,MEAN_MOTION_DOT,MEAN_MOTION_DDOT
STARLINK-4252,2022-077Q,2026-07-16T05:01:49.530720,15.05650867,.0001896,97.2838,15.8400,87.6128,272.5317,0,U,53057,999,22032,-.25391E-4,-.423E-5,0
STARLINK-4317,2022-077R,2026-07-16T00:56:40.005888,15.05633813,.0001122,97.2855,14.5549,122.1165,238.0171,0,U,53058,999,22023,-.12749E-3,-.1894E-4,0
STARLINK-4320,2022-077S,2026-07-16T01:40:29.646048,15.05653736,.0002222,97.2839,14.4963,102.7516,257.3960,0,U,53059,999,22022,-.35662E-4,-.571E-5,0
STARLINK-4305,2022-077T,2026-07-16T00:40:40.296288,15.05652153,.0001518,97.2865,14.4146,100.9045,259.2354,0,U,53060,999,22021,.20662E-4,.242E-5,0
STARLINK-4308,2022-077U,2026-07-16T01:32:31.117056,15.05651880,.0001622,97.2840,14.4986,89.9013,270.2400,0,U,53061,999,22022,-.57198E-4,-.881E-5,0
STARLINK-4311,2022-077V,2026-07-16T00:52:38.915328,15.05654501,.0001912,97.2855,14.5461,91.6091,268.5355,0,U,53062,999,22022,.35248E-4,.452E-5,0
STARLINK-4307,2022-077W,2026-07-16T02:14:20.029632,15.05651926,.0001272,97.2868,15.6017,106.4488,253.6879,0,U,53063,999,9188,-.23752E-5,-.91E-6,0
STARLINK-4313,2022-077X,2026-07-16T00:54:35.398080,15.05673537,.0000967,97.2840,15.6033,70.2353,289.8979,0,U,53064,999,22029,.47219E-4,.626E-5,0
STARLINK-4312,2022-077Y,2026-07-16T02:12:24.043680,15.05652806,.0001683,97.2867,14.6080,101.1366,259.0051,0,U,53065,999,22023,.10567E-4,.96E-6,0
STARLINK-4309,2022-077Z,2026-07-16T01:08:35.299392,15.05665863,.0001286,97.2848,14.5168,108.9534,251.1833,0,U,53066,999,22022,.11401E-3,.159E-4,0
STARLINK-4325,2022-077AB,2026-07-16T00:46:38.506368,15.05627902,.0001539,97.2864,15.5991,102.6531,257.4869,0,U,53068,999,22029,.4407E-3,.6304E-4,0
STARLINK-4323,2022-077AC,2026-07-16T01:36:30.062304,15.05655792,.0001396,97.2852,14.4719,106.3641,253.7740,0,U,53069,999,22022,.35433E-4,.455E-5,0
STARLINK-4342,2022-077AD,2026-07-16T01:26:31.641216,15.05651898,.0001501,97.2846,15.7123,129.8516,230.2844,0,U,53070,999,22030,.58139E-4,.783E-5,0
STARLINK-4328,2022-077AE,2026-07-16T01:22:31.646208,15.05643782,.0000627,97.2847,15.6982,108.1628,251.9668,0,U,53071,999,22030,.17384E-3,.2452E-4,0
STARLINK-4344,2022-077AF,2026-07-16T01:02:33.624672,15.05652901,.0001651,97.2852,15.5734,106.9658,253.1751,0,U,53072,999,22029,.34416E-4,.44E-5,0
STARLINK-4346,2022-077AG,2026-07-16T01:24:14.311008,15.23455282,.0007266,97.6349,27.0830,128.0845,232.1048,0,U,53073,999,22082,.36427E-3,.8617E-4,0
STARLINK-4310,2022-077AH,2026-07-16T04:00:01.998720,15.64347567,.0001663,97.5796,19.7271,92.8763,277.1744,0,U,53074,999,583,.10668E-1,.112451E-1,0
STARLINK-4348,2022-077AJ,2026-07-16T01:44:30.335712,15.05642728,.0001408,97.2847,14.5960,88.1097,272.0292,0,U,53075,999,22023,.10544E-3,.1465E-4,0
STARLINK-4347,2022-077AK,2026-07-16T01:20:33.046656,15.05658366,.0001517,97.2847,14.4763,129.1282,231.0081,0,U,53076,999,22022,.2401E-4,.29E-5,0
STARLINK-4322,2022-077AM,2026-07-16T05:03:51.949152,15.05651267,.0002034,97.2854,14.7189,92.5287,267.6174,0,U,53078,999,22025,-.45632E-4,-.715E-5,0
STARLINK-4327,2022-077AN,2026-07-16T01:46:25.670208,15.05652976,.0001454,97.2850,15.6523,92.8024,267.3370,0,U,53079,999,22030,-.51954E-5,-.131E-5,0
STARLINK-4330,2022-077AP,2026-07-16T00:34:38.576640,15.05656003,.0001771,97.2857,15.6014,101.2728,258.8699,0,U,53080,999,22029,.11787E-4,.114E-5,0
STARLINK-4326,2022-077AQ,2026-07-16T01:04:35.966208,15.05662822,.0001269,97.2854,14.4628,110.2824,249.8540,0,U,53081,999,22022,-.34767E-5,-.106E-5,0
STARLINK-4321,2022-077AR,2026-07-16T01:28:33.067776,15.05656311,.0001288,97.2845,14.4450,105.7323,254.4047,0,U,53082,999,22022,.48638E-5,.14E-6,0
STARLINK-4251,2022-077AS,2026-07-16T02:02:22.316928,15.05652168,.0001592,97.2861,15.6041,100.5785,259.5622,0,U,53083,999,22030,-.1573E-4,-.283E-5,0
STARLINK-4319,2022-077AT,2026-07-16T01:58:23.253312,15.05652068,.0001475,97.2841,15.6310,99.3912,260.7482,0,U,53084,999,22030,-.20233E-4,-.348E-5,0
STARLINK-4324,2022-077AU,2026-07-16T00:42:37.994688,15.05642064,.0002018,97.2867,15.5431,91.0095,269.1364,0,U,53085,999,22029,.44236E-4,.582E-5,0
STARLINK-4318,2022-077AV,2026-07-16T01:24:34.462080,15.05651940,.0001227,97.2844,14.5924,108.6087,251.5274,0,U,53086,999,22023,.18525E-4,.211E-5,0
STARLINK-4333,2022-077AX,2026-07-16T01:16:33.642624,15.05662687,.0001319,97.2852,14.4391,110.1775,249.9594,0,U,53088,999,22022,.4227E-4,.554E-5,0
STARLINK-4150,2022-083C,2026-07-16T04:00:01.998720,15.29376679,.0001304,53.1607,315.8079,108.8241,122.8868,0,U,53134,999,578,.28432E-2,.82658E-3,0
