STARLINK-4252           
1 53057U 22077Q   26197.20960105 -.00000423  00000+0 -25391-4 0  9990
2 53057  97.2838  15.8400 0001896  87.6128 272.5317 15.05650867220322
STARLINK-4317           
1 53058U 22077R   26197.03935192 -.00001894  00000+0 -12749-3 0  9995
2 53058  97.2855  14.5549 0001122 122.1165 238.0171 15.05633813220237
STARLINK-4320           
1 53059U 22077S   26197.06978757 -.00000571  00000+0 -35662-4 0  9994
2 53059  97.2839  14.4963 0002222 102.7516 257.3960 15.05653736220220
STARLINK-4305           
1 53060U 22077T   26197.02824417  .00000242  00000+0  20662-4 0  9992
2 53060  97.2865  14.4146 0001518 100.9045 259.2354 15.05652153220217
STARLINK-4308           
1 53061U 22077U   26197.06424904 -.00000881  00000+0 -57198-4 0  9999
2 53061  97.2840  14.4986 0001622  89.9013 270.2400 15.05651880220222
STARLINK-4311           
1 53062U 22077V   26197.03656152  .00000452  00000+0  35248-4 0  9993
2 53062  97.2855  14.5461 0001912  91.6091 268.5355 15.05654501220228
STARLINK-4307           
1 53063U 22077W   26197.09328738 -.00000091  00000+0 -23752-5 0  9995
2 53063  97.2868  15.6017 0001272 106.4488 253.6879 15.05651926 91888
STARLINK-4313           
1 53064U 22077X   26197.03790970  .00000626  00000+0  47219-4 0  9996
2 53064  97.2840  15.6033 0000967  70.2353 289.8979 15.05673537220299
STARLINK-4312           
1 53065U 22077Y   26197.09194495  .00000096  00000+0  10567-4 0  9990
2 53065  97.2867  14.6080 0001683 101.1366 259.0051 15.05652806220234
STARLINK-4309           
1 53066U 22077Z   26197.04763078  .00001590  00000+0  11401-3 0  9992
2 53066  97.2848  14.5168 0001286 108.9534 251.1833 15.05665863220228
STARLINK-4325           
1 53068U 22077AB  26197.03239012  .00006304  00000+0  44070-3 0  9995
2 53068  97.2864  15.5991 0001539 102.6531 257.4869 15.05627902220299
STARLINK-4323           
1 53069U 22077AC  26197.06701461  .00000455  00000+0  35433-4 0  9996
2 53069  97.2852  14.4719 0001396 106.3641 253.7740 15.05655792220225
STARLINK-4342           
1 53070U 22077AD  26197.06008844  .00000783  00000+0  58139-4 0  9995
2 53070  97.2846  15.7123 0001501 129.8516 230.2844 15.05651898220309
STARLINK-4328           
1 53071U 22077AE  26197.05731072  .00002452  00000+0  17384-3 0  9992
2 53071  97.2847  15.6982 0000627 108.1628 251.9668 15.05643782220302
STARLINK-4344           
1 53072U 22077AF  26197.04344473  .00000440  00000+0  34416-4 0  9998
2 53072  97.2852  15.5734 0001651 106.9658 253.1751 15.05652901220298
STARLINK-4346           
1 53073U 22077AG  26197.05849897  .00008617  00000+0  36427-3 0  9997
2 53073  97.6349  27.0830 0007266 128.0845 232.1048 15.23455282220828
STARLINK-4310           
1 53074U 22077AH  26197.16668980  .01124510  00000+0  10668-1 0  9991
2 53074  97.5796  19.7271 0001663  92.8763 277.1744 15.64347567  5838
STARLINK-4348           
1 53075U 22077AJ  26197.07257333  .00001465  00000+0  10544-3 0  9995
2 53075  97.2847  14.5960 0001408  88.1097 272.0292 15.05642728220233
STARLINK-4347           
1 53076U 22077AK  26197.05593804  .00000290  00000+0  24010-4 0  9999
2 53076  97.2847  14.4763 0001517 129.1282 231.0081 15.05658366220222
STARLINK-4322           
1 53078U 22077AM  26197.21101793 -.00000715  00000+0 -45632-4 0  9998
2 53078  97.2854  14.7189 0002034  92.5287 267.6174 15.05651267220254
STARLINK-4327           
1 53079U 22077AN  26197.07390822 -.00000131  00000+0 -51954-5 0  9993
2 53079  97.2850  15.6523 0001454  92.8024 267.3370 15.05652976220309
STARLINK-4330           
1 53080U 22077AP  26197.02405760  .00000114  00000+0  11787-4 0  9996
2 53080  97.2857  15.6014 0001771 101.2728 258.8699 15.05656003220293
STARLINK-4326           
1 53081U 22077AQ  26197.04486072 -.00000106  00000+0 -34767-5 0  9991
2 53081  97.2854  14.4628 0001269 110.2824 249.8540 15.05662822220222
STARLINK-4321           
1 53082U 22077AR  26197.06149384  .00000014  00000+0  48638-5 0  9994
2 53082  97.2845  14.4450 0001288 105.7323 254.4047 15.05656311220220
STARLINK-4251           
1 53083U 22077AS  26197.08498052 -.00000283  00000+0 -15730-4 0  9992
2 53083  97.2861  15.6041 0001592 100.5785 259.5622 15.05652168220301
STARLINK-4319           
1 53084U 22077AT  26197.08221358 -.00000348  00000+0 -20233-4 0  9992
2 53084  97.2841  15.6310 0001475  99.3912 260.7482 15.05652068220303
STARLINK-4324           
1 53085U 22077AU  26197.02960642  .00000582  00000+0  44236-4 0  9990
2 53085  97.2867  15.5431 0002018  91.0095 269.1364 15.05642064220295
STARLINK-4318           
1 53086U 22077AV  26197.05873220  .00000211  00000+0  18525-4 0  9990
2 53086  97.2844  14.5924 0001227 108.6087 251.5274 15.05651940220236
STARLINK-4333           
1 53088U 22077AX  26197.05316716  .00000554  00000+0  42270-4 0  9998
2 53088  97.2852  14.4391 0001319 110.1775 249.9594 15.05662687220223
STARLINK-4150           
1 53134U 22083C   26197.16668980  .00082658  00000+0  28432-2 0  9999
2 53134  53.1607 315.8079 0001304 108.8241 122.8868 15.29376679  5785
